IXPE                    
1 49954U 21121A   24247.25001157  .00012985  00000+0  95939-3 0  9990
2 49954   0.2293 173.1660 0008882 358.9611 115.2333 14.99553593149636
